NORAD_CAT_ID,OBJECT_NAME,OBJECT_TYPE,EPOCH,MEAN_MOTION,ECCENTRICITY,INCLINATION,RA_OF_ASC_NODE,ARG_OF_PERICENTER,MEAN_ANOMALY,BSTAR,MEAN_MOTION_DOT,MEAN_MOTION_DDOT,TLE_LINE0,TLE_LINE1,TLE_LINE2,SEMIMAJOR_AXIS,PERIOD,APOGEE,PERIGEE,DECAYED
55289.0,STARLINK-5320,PAYLOAD,2023-06-10 06:00:02,15.08048669,0.0002903,70.0002,34.7049,273.9421,248.339,-0.067674,-0.00962653,0.0,0 STARLINK-5320,1 55289U 23010W   23161.25002315 -.00962653  00000-0 -67674-1 0  9990,2 55289  70.0002  34.7049 0002903 273.9421 248.3390 15.08048669 22650,6920.3,95.488,544.174,540.156,0.0
55289.0,STARLINK-5320,PAYLOAD,2023-06-10 14:00:01,15.07384594,0.0002956,70.0005,33.8522,267.3149,263.6165,-0.065909,-0.00923793,0.0,0 STARLINK-5320,1 55289U 23010W   23161.58334491 -.00923793  00000-0 -65909-1 0  9990,2 55289  70.0005  33.8522 0002956 267.3149 263.6165 15.07384594  1309,6922.333,95.53,546.244,542.151,0.0
55289.0,STARLINK-5320,PAYLOAD,2023-06-10 22:00:00,15.06692688,0.0002976,70.0006,33.0001,273.4031,265.4826,-0.063585,-0.00878052,0.0,0 STARLINK-5320,1 55289U 23010W   23161.91667824 -.00878052  00000-0 -63585-1 0  9991,2 55289  70.0006  33.0001 0002976 273.4031 265.4826 15.06692688 22755,6924.452,95.574,548.377,544.256,0.0
55289.0,STARLINK-5320,PAYLOAD,2023-06-11 14:00:01,15.05431784,0.0002952,70.0007,31.299,266.2496,286.1335,-0.070017,-0.0093024,0.0,0 STARLINK-5320,1 55289U 23010W   23162.58334491 -.00930240  00000-0 -70017-1 0  9992,2 55289  70.0007  31.2990 0002952 266.2496 286.1335 15.05431784 22855,6928.318,95.654,552.228,548.137,0.0
55289.0,STARLINK-5320,PAYLOAD,2023-06-11 22:00:00,15.04735034,0.0002984,70.0008,30.4495,272.6959,285.296,-0.066819,-0.00875392,0.0,0 STARLINK-5320,1 55289U 23010W   23162.91667824 -.00875392  00000-0 -66819-1 0  9999,2 55289  70.0008  30.4495 0002984 272.6959 285.2960 15.04735034  1302,6930.456,95.698,554.389,550.253,0.0
55289.0,STARLINK-5320,PAYLOAD,2023-06-12 14:00:01,15.03478853,0.0002973,70.0009,28.7535,264.9823,301.8748,-0.074327,-0.00936556,0.0,0 STARLINK-5320,1 55289U 23010W   23163.58335648 -.00936556  00000-0 -74327-1 0  9992,2 55289  70.0009  28.7535 0002973 264.9823 301.8748 15.03478853 23002,6934.316,95.778,558.243,554.119,0.0
55289.0,STARLINK-5320,PAYLOAD,2023-06-13 00:00:00,15.02626565,0.0003079,70.0011,27.695,271.5476,29.1895,-0.071225,-0.00881529,0.0,0 STARLINK-5320,1 55289U 23010W   23164.00001157 -.00881529  00000-0 -71225-1 0  9998,2 55289  70.0011  27.6950 0003079 271.5476  29.1895 15.02626565  1306,6936.938,95.832,560.939,556.667,0.0
55289.0,STARLINK-5320,PAYLOAD,2023-06-13 14:00:01,15.01523605,0.0002976,70.0009,26.2157,263.7785,310.3875,-0.078516,-0.00949835,0.0,0 STARLINK-5320,1 55289U 23010W   23164.58334491 -.00949835  00000-0 -78516-1 0  9996,2 55289  70.0009  26.2157 0002976 263.7785 310.3875 15.01523605  1301,6940.334,95.903,564.265,560.134,0.0
55289.0,STARLINK-5320,PAYLOAD,2023-06-13 22:00:00,15.00820706,0.0003017,70.0009,25.3714,270.3197,304.7625,-0.07378,-0.00871299,0.0,0 STARLINK-5320,1 55289U 23010W   23164.91667824 -.00871299  00000-0 -73780-1 0  9998,2 55289  70.0009  25.3714 0003017 270.3197 304.7625 15.00820706 23202,6942.501,95.948,566.461,562.272,0.0
55289.0,STARLINK-5320,PAYLOAD,2023-06-14 14:00:01,14.99388865,0.0003144,70.0009,23.6856,265.1589,309.3617,-0.0097582,-0.00117787,0.0,0 STARLINK-5320,1 55289U 23010W   23165.58334491 -.00117787  00000-0 -97582-2 0  9995,2 55289  70.0009  23.6856 0003144 265.1589 309.3617 14.99388865 23303,6946.92,96.039,570.969,566.601,0.0
55289.0,STARLINK-5320,PAYLOAD,2023-06-14 22:00:00,14.99286845,0.0003203,70.0007,22.8434,271.2545,301.9744,0.00099289,0.00012072,0.0,0 STARLINK-5320,1 55289U 23010W   23165.91667824  .00012072  00000-0  99289-3 0  9997,2 55289  70.0007  22.8434 0003203 271.2545 301.9744 14.99286845  1300,6947.236,96.046,571.326,566.875,0.0
55289.0,STARLINK-5320,PAYLOAD,2023-06-15 06:00:00,14.99313793,0.000317,70.0005,22.0019,270.0582,301.8059,-0.0036505,-0.00044495,0.0,0 STARLINK-5320,1 55289U 23010W   23166.25001157 -.00044495  00000-0 -36505-2 0  9993,2 55289  70.0005  22.0019 0003170 270.0582 301.8059 14.99313793 23406,6947.152,96.044,571.22,566.815,0.0
55289.0,STARLINK-5320,PAYLOAD,2023-06-15 14:00:01,14.99297494,0.0003189,70.0008,21.1603,265.1327,305.3716,0.0019139,0.00023401,0.0,0 STARLINK-5320,1 55289U 23010W   23166.58334491  .00023401  00000-0  19139-2 0  9995,2 55289  70.0008  21.1603 0003189 265.1327 305.3716 14.99297494 23453,6947.203,96.045,571.283,566.852,0.0
55289.0,STARLINK-5320,PAYLOAD,2023-06-15 20:00:01,14.993184,0.000322,70.0006,20.529,269.7976,209.6991,-0.0027932,-0.00034122,0.0,0 STARLINK-5320,1 55289U 23010W   23166.83334491 -.00034122  00000-0 -27932-2 0  9997,2 55289  70.0006  20.5290 0003220 269.7976 209.6991 14.99318400  1304,6947.138,96.044,571.24,566.766,0.0
55289.0,STARLINK-5320,PAYLOAD,2023-06-16 06:00:00,14.99313921,0.0003168,70.0003,19.4766,271.3358,296.4787,-0.0030909,-0.00037725,0.0,0 STARLINK-5320,1 55289U 23010W   23167.25001157 -.00037725  00000-0 -30909-2 0  9994,2 55289  70.0003  19.4766 0003168 271.3358 296.4787 14.99313921 23551,6947.152,96.044,571.218,566.816,0.0
55289.0,STARLINK-5320,PAYLOAD,2023-06-16 14:00:01,14.99307151,0.000319,70.0006,18.635,267.3292,299.1282,0.0018371,0.00022461,0.0,0 STARLINK-5320,1 55289U 23010W   23167.58334491  .00022461  00000-0  18371-2 0  9998,2 55289  70.0006  18.6350 0003190 267.3292 299.1282 14.99307151 23605,6947.173,96.044,571.254,566.822,0.0
55289.0,STARLINK-5320,PAYLOAD,2023-06-16 22:00:00,14.99312029,0.000321,70.0003,17.7931,275.2389,289.8907,-0.003086,-0.00037664,0.0,0 STARLINK-5320,1 55289U 23010W   23167.91667824 -.00037664  00000-0 -30860-2 0  9994,2 55289  70.0003  17.7931 0003210 275.2389 289.8907 14.99312029  1308,6947.158,96.044,571.253,566.793,0.0
55289.0,STARLINK-5320,PAYLOAD,2023-06-17 06:00:02,14.9930299,0.000311,70.0,16.9513,276.0987,287.7457,-0.0037695,-0.0004592,0.0,0 STARLINK-5320,1 55289U 23010W   23168.25002315 -.00045920  00000-0 -37695-2 0  9997,2 55289  70.0000  16.9513 0003110 276.0987 287.7457 14.99302990 23705,6947.186,96.045,571.211,566.89,0.0
55289.0,STARLINK-5320,PAYLOAD,2023-06-17 14:00:01,14.99287979,0.0003086,70.0003,16.1096,272.2444,290.1566,0.00099595,0.0001211,0.0,0 STARLINK-5320,1 55289U 23010W   23168.58334491  .00012110  00000-0  99595-3 0  9997,2 55289  70.0003  16.1096 0003086 272.2444 290.1566 14.99287979  1304,6947.232,96.046,571.241,566.953,0.0
55289.0,STARLINK-5320,PAYLOAD,2023-06-17 22:00:01,14.99273513,0.0003131,70.0001,15.2677,279.1694,281.9379,0.0028119,0.00034458,0.0,0 STARLINK-5320,1 55289U 23010W   23168.91668981  .00034458  00000-0  28119-2 0  9990,2 55289  70.0001  15.2677 0003131 279.1694 281.9379 14.99273513 23809,6947.277,96.047,571.317,566.966,0.0
55289.0,STARLINK-5320,PAYLOAD,2023-06-18 06:42:49,14.99296669,0.000295,69.9988,14.3512,270.3805,89.7017,-7.7064e-05,-1.037e-05,0.0,0 STARLINK-5320,1 55289U 23010W   23169.27974010 -.00001037  00000-0 -77064-4 0  9997,2 55289  69.9988  14.3512 0002950 270.3805  89.7017 14.99296669 23858,6947.205,96.045,571.12,567.021,0.0
55289.0,STARLINK-5320,PAYLOAD,2023-06-18 19:31:23,14.9930265,0.0002955,69.9986,13.0036,270.2689,89.8132,-1.9551e-05,-3.33e-06,0.0,0 STARLINK-5320,1 55289U 23010W   23169.81346972 -.00000333  00000-0 -19551-4 0  9992,2 55289  69.9986  13.0036 0002955 270.2689  89.8132 14.99302650 23933,6947.187,96.045,571.105,566.999,0.0
55289.0,STARLINK-5320,PAYLOAD,2023-06-19 00:19:36,14.99304718,0.0003006,69.9984,12.4973,273.0546,87.027,-3.8747e-06,-1.41e-06,0.0,0 STARLINK-5320,1 55289U 23010W   23170.01361795 -.00000141  00000-0 -38747-5 0  9992,2 55289  69.9984  12.4973 0003006 273.0546  87.0270 14.99304718 24273,6947.18,96.045,571.134,566.957,0.0
55289.0,STARLINK-5320,PAYLOAD,2023-06-19 19:32:28,14.99297009,0.0003031,69.9988,10.4754,271.9076,88.1737,0.00013028,1.5e-05,0.0,0 STARLINK-5320,1 55289U 23010W   23170.81422062  .00001500  00000-0  13028-3 0  9996,2 55289  69.9988  10.4754 0003031 271.9076  88.1737 14.99297009 24392,6947.204,96.045,571.175,566.963,0.0
55289.0,STARLINK-5320,PAYLOAD,2023-06-20 00:20:41,14.99298954,0.0003015,69.999,9.9702,271.6696,88.4118,0.0001183,1.354e-05,0.0,0 STARLINK-5320,1 55289U 23010W   23171.01437034  .00001354  00000-0  11830-3 0  9990,2 55289  69.9990   9.9702 0003015 271.6696  88.4118 14.99298954 24114,6947.198,96.045,571.158,566.969,0.0
55289.0,STARLINK-5320,PAYLOAD,2023-06-20 06:44:59,14.99293913,0.0002973,69.9982,9.2948,267.5525,92.5294,5.6954e-05,6.03e-06,0.0,0 STARLINK-5320,1 55289U 23010W   23171.28124219  .00000603  00000-0  56954-4 0  9990,2 55289  69.9982   9.2948 0002973 267.5525  92.5294 14.99293913 24466,6947.214,96.045,571.144,567.013,0.0
55289.0,STARLINK-5320,PAYLOAD,2023-06-20 21:09:38,14.99295896,0.0002952,69.9988,7.7795,271.6027,88.4794,6.1395e-05,6.57e-06,0.0,0 STARLINK-5320,1 55289U 23010W   23171.88169313  .00000657  00000-0  61395-4 0  9994,2 55289  69.9988   7.7795 0002952 271.6027  88.4794 14.99295896 24556,6947.208,96.045,571.123,567.022,0.0
55289.0,STARLINK-5320,PAYLOAD,2023-06-21 13:10:21,14.99298668,0.0002943,69.9989,6.0948,272.2107,87.8716,-3.1354e-05,-4.77e-06,0.0,0 STARLINK-5320,1 55289U 23010W   23172.54886167 -.00000477  00000-0 -31354-4 0  9995,2 55289  69.9989   6.0948 0002943 272.2107  87.8716 14.99298668 24349,6947.199,96.045,571.109,567.019,0.0
55289.0,STARLINK-5320,PAYLOAD,2023-06-21 19:34:38,14.99300643,0.0002952,69.9989,5.4203,271.0731,89.009,-2.3077e-05,-3.76e-06,0.0,0 STARLINK-5320,1 55289U 23010W   23172.81572741 -.00000376  00000-0 -23077-4 0  9996,2 55289  69.9989   5.4203 0002952 271.0731  89.0090 14.99300643 24690,6947.193,96.045,571.109,567.007,0.0
55289.0,STARLINK-5320,PAYLOAD,2023-06-22 19:35:43,14.9930141,0.000292,69.9991,2.894,269.1731,90.9094,1.4977e-05,8.9e-07,0.0,0 STARLINK-5320,1 55289U 23010W   23173.81647798  .00000089  00000-0  14977-4 0  9990,2 55289  69.9991   2.8940 0002920 269.1731  90.9094 14.99301410 24536,6947.191,96.045,571.084,567.027,0.0
